ORBCOMM-X               
1 21576U 91050C   24162.90478360  .00000756  00000+0  24106-3 0  9991
2 21576  98.3897 230.2304 0002924 210.8654 149.2364 14.42547372728571
ORBCOMM FM01            
1 23545U 95017A   24162.78966205  .00010434  00000+0  13673-2 0  9992
2 23545  69.9676 273.6413 0006076 195.8811 164.2149 14.80545846557359
ORBCOMM FM02            
1 23546U 95017B   24162.75907662  .00009223  00000+0  12207-2 0  9998
2 23546  69.9699 293.1930 0007645 182.1914 177.9203 14.80168629556993
ORBCOMM FM08            
1 25112U 97084A   24162.76621422  .00003040  00000+0  94565-3 0  9992
2 25112  45.0158 346.8253 0008138 175.2917 184.8011 14.42769462387678
ORBCOMM FM10            
1 25113U 97084B   24162.77526876  .00002952  00000+0  92176-3 0  9998
2 25113  45.0171 348.6644 0005600 149.9001 210.2172 14.42663348562821
ORBCOMM FM11            
1 25114U 97084C   24162.93521625  .00003313  00000+0  10316-2 0  9991
2 25114  45.0157 347.9956 0006382 150.1412 209.9803 14.42538714387810
ORBCOMM FM12            
1 25115U 97084D   24162.89579168  .00003141  00000+0  98115-3 0  9995
2 25115  45.0164 347.8906 0005406 151.3030 208.8118 14.42503725387606
ORBCOMM FM09            
1 25116U 97084E   24162.90790869  .00003277  00000+0  10226-2 0  9997
2 25116  45.0168 348.5287 0006301 136.6897 223.4449 14.42465849387810
